STARLINK-37974          
1 69699U 26145Y   26190.05158533  .00148125  00000+0  97326-3 0  9995
2 69699  97.2852  36.6500 0000569 341.3028  18.8217 15.75274964  2217
STARLINK-37955          
1 69700U 26145Z   26190.23969709  .00173926  00000+0  11405-2 0  9993
2 69700  97.2854  36.8524 0001221 122.0171 238.1213 15.75248358  2243
STRIX-8                 
1 69701U 26146A   26190.04456525  .00002905  00000+0  21786-3 0  9993
2 69701  41.9900  47.1643 0008182 342.1602  17.8937 15.04399800  1858
STARLINK-38055          
1 69704U 26147A   26190.02899679  .00179032  00000+0  91293-3 0  9992
2 69704  97.2852 226.0580 0000997  93.0082 267.1301 15.80898310  2882
STARLINK-37898          
1 69705U 26147B   26190.02817418  .00316975  00000+0  15861-2 0  9999
2 69705  97.2858 226.0587 0000434 148.1133 212.0161 15.80952998  2887
STARLINK-37970          
1 69706U 26147C   26190.02740440  .00137927  00000+0  70528-3 0  9990
2 69706  97.2856 226.0593 0001090 163.1455 196.9850 15.80946380  2889
STARLINK-37975          
1 69707U 26147D   26190.08997354  .00259484  00000+0  13089-2 0  9996
2 69707  97.2850 226.1278 0001664 167.5780 192.5530 15.80926051  2892
STARLINK-37972          
1 69708U 26147E   26190.08922306  .00223480  00000+0  11331-2 0  9997
2 69708  97.2866 226.1300 0000221 239.2487 120.8760 15.80905971  2892
STARLINK-37963          
1 69709U 26147F   26190.08847139  .00246731  00000+0  12468-2 0  9994
2 69709  97.2828 226.1272 0001857 152.9220 207.2146 15.80920957  2890
STARLINK-37969          
1 69710U 26147G   26190.08771838  .00211509  00000+0  10737-2 0  9990
2 69710  97.2845 226.1303 0002068 153.4645 206.6730 15.80910603  2897
STARLINK-37956          
1 69711U 26147H   26190.02361076  .00226354  00000+0  11347-2 0  9996
2 69711  97.2857 226.0663 0000469  36.6763 323.4537 15.81148199  2881
STARLINK-38043          
1 69712U 26147J   26190.25002315 -.00135902  00000+0 -71815-3 0  9997
2 69712  97.2849 226.3056 0001072  86.1482 125.5369 15.80868059  2787
STARLINK-38020          
1 69713U 26147K   26190.25002315 -.00130859  00000+0 -69104-3 0  9992
2 69713  97.2849 226.3075 0001086  79.0071 136.9440 15.80869190  2782
STARLINK-38059          
1 69714U 26147L   26190.25002315 -.00124707  00000+0 -65836-3 0  9996
2 69714  97.2850 226.3100 0000952  77.9855 142.2550 15.80859285  2788
STARLINK-38061          
1 69715U 26147M   26190.25002315 -.00167710  00000+0 -88876-3 0  9997
2 69715  97.2849 226.3118 0001116  95.4522 129.0457 15.80889219  2874
STARLINK-38060          
1 69716U 26147N   26190.25002315 -.00129060  00000+0 -68152-3 0  9999
2 69716  97.2846 226.3129 0001067  96.2787 132.5019 15.80865188  2873
STARLINK-38040          
1 69717U 26147P   26190.25002315 -.00131304  00000+0 -69339-3 0  9992
2 69717  97.2847 226.3151 0001114  93.7576 139.2883 15.80870111  2876
STARLINK-37989          
1 69718U 26147Q   26190.25002315 -.00078603  00000+0 -41268-3 0  9996
2 69718  97.2848 226.3179 0000949 106.7002 130.6335 15.80850496  2873
STARLINK-38039          
1 69719U 26147R   26190.25002315 -.00086375  00000+0 -45390-3 0  9992
2 69719  97.2847 226.3192 0000482 113.6613 127.9438 15.80854344  2874
STARLINK-38003          
1 69720U 26147S   26190.25002315 -.00100578  00000+0 -52940-3 0  9995
2 69720  97.2844 226.3212 0000977  94.1491 151.7304 15.80858239  2876
STARLINK-38014          
1 69721U 26147T   26190.25002315 -.00155099  00000+0 -82097-3 0  9990
2 69721  97.2843 226.3219 0001118  95.9382 154.2052 15.80881939  2870
STARLINK-37915          
1 69722U 26147U   26190.25002315 -.00152075  00000+0 -80503-3 0  9992
2 69722  97.2842 226.3235 0001143 120.0643 134.3661 15.80871910  2879
STARLINK-38007          
1 69723U 26147V   26190.25002315 -.00161332  00000+0 -85435-3 0  9998
2 69723  97.2843 226.3173 0001128  98.4102 142.3974 15.80888058  2870
STARLINK-38008          
1 69724U 26147W   26190.25002315 -.00138228  00000+0 -73042-3 0  9998
2 69724  97.2842 226.3279 0001268  85.8031 177.1564 15.80874204  2872
STARLINK-38021          
1 69725U 26147X   26190.25002315 -.00109274  00000+0 -57578-3 0  9994
2 69725  97.2844 226.3306 0000936 110.4532 156.7980 15.80859379  2879
STARLINK-38015          
1 69726U 26147Y   26190.25002315 -.00122712  00000+0 -64714-3 0  9997
2 69726  97.2843 226.3321 0001246  91.3494 180.1588 15.80876414  2879
STARLINK-38010          
1 69727U 26147Z   26190.25002315 -.00170076  00000+0 -11593-2 0  9990
2 69727  97.2851 226.3289 0000970  91.9682 170.8247 15.75249642  2879
SXM-11                  
1 69728U 26148A   26189.55643201 -.00000125  00000+0  00000+0 0  9992
2 69728   0.3141 160.6783 0287943 161.5453  35.7797  1.04825240   264
