OBJECT_NAME,OBJECT_ID,EPOCH,MEAN_MOTION,ECCENTRICITY,INCLINATION,RA_OF_ASC_NODE,ARG_OF_PERICENTER,MEAN_ANOMALY,EPHEMERIS_TYPE,CLASSIFICATION_TYPE,NORAD_CAT_ID,ELEMENT_SET_NO,REV_AT_EPOCH,BSTAR,MEAN_MOTION_DOT,MEAN_MOTION_DDOT
STARLINK-37974,2026-145Y,2026-07-09T01:14:16.972512,15.75274964,.00005693,97.2852,36.6500,341.3028,18.8217,0,U,69699,999,221,.97325955E-3,.148125E-2,0
STARLINK-37955,2026-145Z,2026-07-09T05:45:09.828576,15.75248358,.00012215,97.2854,36.8524,122.0171,238.1213,0,U,69700,999,224,.11404801E-2,.173926E-2,0
STRIX-8,2026-146A,2026-07-09T01:04:10.437600,15.04399800,.00081828,41.9900,47.1643,342.1602,17.8937,0,U,69701,999,185,.21786218E-3,.2905E-4,0
STARLINK-38055,2026-147A,2026-07-09T00:41:45.322656,15.80898310,.00009979,97.2852,226.0580,93.0082,267.1301,0,U,69704,999,288,.91292614E-3,.179032E-2,0
STARLINK-37898,2026-147B,2026-07-09T00:40:34.249152,15.80952998,.00004341,97.2858,226.0587,148.1133,212.0161,0,U,69705,999,288,.15861415E-2,.316975E-2,0
STARLINK-37970,2026-147C,2026-07-09T00:39:27.740160,15.80946380,.00010906,97.2856,226.0593,163.1455,196.9850,0,U,69706,999,288,.70528406E-3,.137927E-2,0
STARLINK-37975,2026-147D,2026-07-09T02:09:33.713856,15.80926051,.00016645,97.2850,226.1278,167.5780,192.5530,0,U,69707,999,289,.13089377E-2,.259484E-2,0
STARLINK-37972,2026-147E,2026-07-09T02:08:28.872384,15.80905971,.00002211,97.2866,226.1300,239.2487,120.8760,0,U,69708,999,289,.11331276E-2,.22348E-2,0
STARLINK-37963,2026-147F,2026-07-09T02:07:23.928096,15.80920957,.00018574,97.2828,226.1272,152.9220,207.2146,0,U,69709,999,289,.12467589E-2,.246731E-2,0
STARLINK-37969,2026-147G,2026-07-09T02:06:18.868032,15.80910603,.00020681,97.2845,226.1303,153.4645,206.6730,0,U,69710,999,289,.10737268E-2,.211509E-2,0
STARLINK-37956,2026-147H,2026-07-09T00:33:59.969664,15.81148199,.0000469,97.2857,226.0663,36.6763,323.4537,0,U,69711,999,288,.11347042E-2,.226354E-2,0
STARLINK-38043,2026-147J,2026-07-09T06:00:02.000160,15.80868059,.00010722,97.2849,226.3056,86.1482,125.5369,0,U,69712,999,278,-.71814682E-3,-.135902E-2,0
STARLINK-38020,2026-147K,2026-07-09T06:00:02.000160,15.80869190,.00010861,97.2849,226.3075,79.0071,136.9440,0,U,69713,999,278,-.69103926E-3,-.130859E-2,0
STARLINK-38059,2026-147L,2026-07-09T06:00:02.000160,15.80859285,.00009526,97.2850,226.3100,77.9855,142.2550,0,U,69714,999,278,-.65836248E-3,-.124707E-2,0
STARLINK-38061,2026-147M,2026-07-09T06:00:02.000160,15.80889219,.00011169,97.2849,226.3118,95.4522,129.0457,0,U,69715,999,287,-.88875585E-3,-.16771E-2,0
STARLINK-38060,2026-147N,2026-07-09T06:00:02.000160,15.80865188,.00010679,97.2846,226.3129,96.2787,132.5019,0,U,69716,999,287,-.68151507E-3,-.12906E-2,0
STARLINK-38040,2026-147P,2026-07-09T06:00:02.000160,15.80870111,.00011143,97.2847,226.3151,93.7576,139.2883,0,U,69717,999,287,-.69339279E-3,-.131304E-2,0
STARLINK-37989,2026-147Q,2026-07-09T06:00:02.000160,15.80850496,.00009497,97.2848,226.3179,106.7002,130.6335,0,U,69718,999,287,-.4126815E-3,-.78603E-3,0
STARLINK-38039,2026-147R,2026-07-09T06:00:02.000160,15.80854344,.00004827,97.2847,226.3192,113.6613,127.9438,0,U,69719,999,287,-.45389949E-3,-.86375E-3,0
STARLINK-38003,2026-147S,2026-07-09T06:00:02.000160,15.80858239,.00009779,97.2844,226.3212,94.1491,151.7304,0,U,69720,999,287,-.52940026E-3,-.100578E-2,0
STARLINK-38014,2026-147T,2026-07-09T06:00:02.000160,15.80881939,.00011183,97.2843,226.3219,95.9382,154.2052,0,U,69721,999,287,-.8209656E-3,-.155099E-2,0
STARLINK-37915,2026-147U,2026-07-09T06:00:02.000160,15.80871910,.00011431,97.2842,226.3235,120.0643,134.3661,0,U,69722,999,287,-.80503463E-3,-.152075E-2,0
STARLINK-38007,2026-147V,2026-07-09T06:00:02.000160,15.80888058,.00011284,97.2843,226.3173,98.4102,142.3974,0,U,69723,999,287,-.85435292E-3,-.161332E-2,0
STARLINK-38008,2026-147W,2026-07-09T06:00:02.000160,15.80874204,.00012685,97.2842,226.3279,85.8031,177.1564,0,U,69724,999,287,-.7304204E-3,-.138228E-2,0
STARLINK-38021,2026-147X,2026-07-09T06:00:02.000160,15.80859379,.00009366,97.2844,226.3306,110.4532,156.7980,0,U,69725,999,287,-.57577848E-3,-.109274E-2,0
STARLINK-38015,2026-147Y,2026-07-09T06:00:02.000160,15.80876414,.00012468,97.2843,226.3321,91.3494,180.1588,0,U,69726,999,287,-.64714177E-3,-.122712E-2,0
STARLINK-38010,2026-147Z,2026-07-09T06:00:02.000160,15.75249642,.00009701,97.2851,226.3289,91.9682,170.8247,0,U,69727,999,287,-.11592512E-2,-.170076E-2,0
SXM-11,2026-148A,2026-07-08T13:21:15.725664,1.04825240,.02879431,0.3141,160.6783,161.5453,35.7797,0,U,69728,999,26,0,-.125E-5,0
